[{"OBJECT_NAME":"COSMOS 2407","OBJECT_ID":"2004-028A","EPOCH":"2026-04-27T05:45:59.117184","MEAN_MOTION":13.7633013,"ECCENTRICITY":0.00401332,"INCLINATION":82.9568,"RA_OF_ASC_NODE":112.569,"ARG_OF_PERICENTER":36.6614,"MEAN_ANOMALY":335.5249,"EPHEMERIS_TYPE":0,"CLASSIFICATION_TYPE":"U","NORAD_CAT_ID":28380,"ELEMENT_SET_NO":999,"REV_AT_EPOCH":9287,"BSTAR":6.897471e-5,"MEAN_MOTION_DOT":8.3e-7,"MEAN_MOTION_DDOT":0},{"OBJECT_NAME":"COSMOS 2414","OBJECT_ID":"2005-002A","EPOCH":"2026-04-27T06:43:16.664736","MEAN_MOTION":13.87920749,"ECCENTRICITY":0.00414317,"INCLINATION":82.9476,"RA_OF_ASC_NODE":82.1505,"ARG_OF_PERICENTER":113.6319,"MEAN_ANOMALY":246.9202,"EPHEMERIS_TYPE":0,"CLASSIFICATION_TYPE":"U","NORAD_CAT_ID":28521,"ELEMENT_SET_NO":999,"REV_AT_EPOCH":7675,"BSTAR":6.2130841e-5,"MEAN_MOTION_DOT":9.1e-7,"MEAN_MOTION_DDOT":0},{"OBJECT_NAME":"COSMOS 2463","OBJECT_ID":"2010-017A","EPOCH":"2026-04-26T23:50:33.743904","MEAN_MOTION":13.7166218,"ECCENTRICITY":0.00347922,"INCLINATION":82.9571,"RA_OF_ASC_NODE":287.3278,"ARG_OF_PERICENTER":272.2006,"MEAN_ANOMALY":202.4369,"EPHEMERIS_TYPE":0,"CLASSIFICATION_TYPE":"U","NORAD_CAT_ID":36519,"ELEMENT_SET_NO":999,"REV_AT_EPOCH":80091,"BSTAR":5.0687656e-5,"MEAN_MOTION_DOT":6.1e-7,"MEAN_MOTION_DDOT":0}]
