COSMOS 2407             
1 28380U 04028A   26117.24026756  .00000083  00000+0  68975-4 0  9993
2 28380  82.9568 112.5690 0040133  36.6614 335.5249 13.76330130 92876
COSMOS 2414             
1 28521U 05002A   26117.28005399  .00000091  00000+0  62131-4 0  9994
2 28521  82.9476  82.1505 0041431 113.6319 246.9202 13.87920749 76754
COSMOS 2463             
1 36519U 10017A   26116.99344611  .00000061  00000+0  50688-4 0  9993
2 36519  82.9571 287.3278 0034792 272.2006 202.4369 13.71662180800918
